[{"OBJECT_NAME":"NUSAT-44 (MARIA MITCHELL)","OBJECT_ID":"2024-043AA","EPOCH":"2026-03-09T22:12:18.524160","MEAN_MOTION":15.29764305,"ECCENTRICITY":0.0007331,"INCLINATION":97.5299,"RA_OF_ASC_NODE":207.7691,"ARG_OF_PERICENTER":214.9017,"MEAN_ANOMALY":145.1743,"EPHEMERIS_TYPE":0,"CLASSIFICATION_TYPE":"U","NORAD_CAT_ID":59122,"ELEMENT_SET_NO":999,"REV_AT_EPOCH":11209,"BSTAR":0.00061063193,"MEAN_MOTION_DOT":0.00017562,"MEAN_MOTION_DDOT":0},{"OBJECT_NAME":"STARLINK-32820","OBJECT_ID":"2025-034N","EPOCH":"2026-03-09T19:18:33.929568","MEAN_MOTION":15.30201128,"ECCENTRICITY":9.216e-5,"INCLINATION":53.1578,"RA_OF_ASC_NODE":257.6441,"ARG_OF_PERICENTER":81.0026,"MEAN_ANOMALY":279.1079,"EPHEMERIS_TYPE":0,"CLASSIFICATION_TYPE":"U","NORAD_CAT_ID":63041,"ELEMENT_SET_NO":999,"REV_AT_EPOCH":5910,"BSTAR":0.0011012095,"MEAN_MOTION_DOT":0.00032399,"MEAN_MOTION_DDOT":0}]
